ALOS (DAICHI)           
1 28931U 06002A   25351.73419158  .00001110  00000+0  19545-3 0  9994
2 28931  98.1098 303.1864 0001361 113.5739 246.5610 14.69501788 61443
H-2A R/B                
1 28932U 06002B   25362.30949800  .00013144  00000+0  68323-3 0  9990
2 28932  98.2322 138.3338 0054978 123.8024 236.8459 15.14892516 83622
RESURS-DK 1             
1 29228U 06021A   25362.30889945  .00003923  00000+0  23238-3 0  9993
2 29228  69.9341  61.5992 0007012 245.2897 114.7539 15.12252909 76735
CZ-4B R/B               
1 29507U 06046C   25362.08285328  .00006261  00000+0  32441-3 0  9994
2 29507  97.5716  42.1792 0034541 153.4159 206.8854 15.16027359 49195
CZ-2C R/B               
1 31114U 07010B   25362.28870606  .00000210  00000+0  11544-3 0  9993
2 31114  98.3974 114.1571 0059748 141.0616 219.4888 14.20216428969581
COSMO-SKYMED 1          
1 31598U 07023A   25362.24072892  .00004706  00000+0  42605-3 0  9996
2 31598  97.8836 187.7425 0001048  78.8645 281.2693 14.95882351  4229
COSMOS 2428             
1 31792U 07029A   25362.24306421  .00000286  00000+0  17951-3 0  9991
2 31792  70.9371 353.3284 0004562   2.0607 358.0532 14.12896878954009
SL-16 R/B               
1 31793U 07029B   25362.31830330  .00000295  00000+0  17740-3 0  9997
2 31793  70.9768 322.4096 0001911 267.7121 261.3017 14.14821052955272
KORONAS-FOTON           
1 33504U 09003A   25362.01075493  .00010299  00000+0  24421-3 0  9990
2 33504  82.4309 350.2776 0013143  61.1160 299.1403 15.41486416934699
CZ-2C R/B               
1 37731U 11030B   25361.79606648  .00001621  00000+0  21178-3 0  9990
2 37731  97.8435 315.5714 0051679 223.2870 197.0184 14.80948198779451
H-2A R/B                
1 38341U 12025E   25361.90505546  .00004591  00000+0  42265-3 0  9990
2 38341  98.4620 318.3072 0044740 185.4303 174.6436 14.94545079737496
SHIJIAN-16 (SJ-16)      
1 39358U 13057A   25362.29295773  .00001529  00000+0  15314-3 0  9999
2 39358  74.9736 320.2246 0017898 283.7646  76.1550 14.92035184660850
